K18E01A 20.7   0.15 K194R 220.08884  333.31187  347.97749   14.69485  0.4798071  0.84569478   1.1074572  5 MPO450735    41   1   66 days 0.36 M-v 3Eh MPCLINUX   2803          2018 EA1           20180511
K18E01B 24.8   0.15 K194R 277.60525  267.30489  165.11065   25.44884  0.5160544  0.58267767   1.4196582  7 MPO439030    19   1    2 days 0.26 M-v 3Eh MPCW       2803          2018 EB1           20180309
K18E01C 26.2   0.15 K194R 277.26919  259.59060  351.30803   11.38857  0.2311248  0.80922921   1.1404818  6 MPO439031    35   1   11 days 0.35 M-v 3Eh MPCLINUX   2803          2018 EC1           20180318
K18E01D 25.8   0.15 K194R 226.71721  301.25218  158.43295    2.49973  0.4934483  0.48924422   1.5950914  7 MPO439031    30   1    9 days 0.37 M-v 3Eh MPCLINUX   2803          2018 ED1           20180316
K18E01E 24.8   0.15 K194R 279.86467  268.47786  165.79131   13.77322  0.5320617  0.59312103   1.4029445  7 MPO439031    57   1    7 days 0.42 M-v 3Eh MPCLINUX   2803          2018 EE1           20180314
K18E01F 24.2   0.15 K194R 283.29905   78.35965  166.17874   10.46357  0.2538188  0.80705084   1.1425331  7 MPO446984    38   1    5 days 0.37 M-v 3Eh MPCLINUX   2803          2018 EF1           20180313
K18E01P 18.6   0.15 K194R 178.34125  328.49178   45.52882   13.52910  0.8255569  0.36407223   1.9424254  6 MPO439032    59   1   21 days 0.38 M-v 3Eh MPCLINUX   2803          2018 EP1           20180328
K18E01Q 21.2   0.15 K194R  84.27958  269.69200  357.60885    4.92887  0.5918691  0.29243394   2.2479373  3 MPO458735    27   2 2018-2018 0.23 M-v 3Eh MPCW       0803          2018 EQ1           20181006
K18E01R 25.6   0.15 K194R 289.60332  101.91317  188.51802    6.42037  0.0918705  0.97294107   1.0086605  5 MPO446984    61   1   28 days 0.34 M-v 3Eh MPCLINUX   2803          2018 ER1           20180405
K18E01S 26.8   0.15 K194R  10.66090  315.98465  167.19494   25.26368  0.1530752  0.81400849   1.1360133  6 MPO439032    45   1    4 days 0.90 M-v 3Eh MPCLINUX   2803          2018 ES1           20180313
K18E01T 26.4   0.15 K194R 258.71136  208.84194  354.05238    7.74989  0.2384007  0.67809092   1.2831500  6 MPO446984    39   1   11 days 0.44 M-v 3Eh MPCLINUX   2803          2018 ET1           20180318
K18E01U 26.7   0.15 K194R 249.71317  261.02748  346.57587   13.55449  0.3357631  0.71012847   1.2442608  7 MPO439033    22   1    3 days 0.29 M-v 3Eh MPCW       2803          2018 EU1           20180310
K18E01V 25.4   0.15 K194R 150.59865  212.33188   17.85610    0.84316  0.5125660  0.41340762   1.7846391  7 MPO439033    28   1   12 days 0.77 M-v 3Eh MPCLINUX   2803          2018 EV1           20180320
K18E01W 26.3   0.15 K194R 352.10351  279.79595  176.41726    3.69892  0.2878533  0.74745251   1.2024868  6 MPO439033    73   1   11 days 0.37 M-v 3Eh MPCLINUX   2803          2018 EW1           20180320
K18E01X 26.0   0.15 K194R 166.31864  341.18962  162.48630   11.22683  0.4734049  0.38283297   1.8784364  7 MPO439033    27   1    9 days 0.46 M-v 3Eh MPCW       2803          2018 EX1           20180318
K18E02J 22.3   0.15 K194R 152.63955  100.26703  163.30019   10.55132  0.2519678  0.53762759   1.4978961  6 MPO457149    17   1   23 days 0.27 M-v 38h MPCLINUX   2804          2018 EJ2           20180316
K18E02K 25.8   0.15 K194R 268.73436  149.55781  348.99401    4.56965  0.2241987  0.60592280   1.3831136  6 MPO439034    24   1   12 days 0.27 M-v 3Eh MPCLINUX   2804          2018 EK2           20180319
K18E02L 24.6   0.15 K194R 111.83858   27.89637  141.97703    4.22173  0.5143394  0.27159336   2.3615109  5 MPO439034    25   1   34 days 0.36 M-v 38h MPCLINUX   2804          2018 EL2           20180318
K18E02M 20.7   0.15 K194R 107.57210  188.76085   64.51644    6.53759  0.4822125  0.34135290   2.0276842  3 MPO457149   115   1  182 days 0.33 M-v 3Eh MPCLINUX   8804          2018 EM2           20180905
K18E02N 22.0   0.15 K194R 117.34984  346.43873   57.80799    5.20725  0.8220732  0.24005587   2.5640579  7 MPO439035    19   1    4 days 0.24 M-v 3Eh MPCW       2803          2018 EN2           20180311
K18E02R 24.3   0.15 K194R 144.33951  133.25030   22.83547    4.02471  0.4122526  0.33809735   2.0406798  5 MPO439035    13   1   20 days 0.12 M-v 38h MPCLINUX   2804          2018 ER2           20180327
K18E02S 21.9   0.15 K194R 292.47465   79.42725    3.21058   14.63831  0.2211812  0.56094785   1.4560883  5 MPO446984    28   1   32 days 0.36 M-v 38h MPCLINUX   2804          2018 ES2           20180408
K18E02T 19.0   0.15 K194R 144.82139  324.66083  335.26230   50.06835  0.6424603  0.46671809   1.6460119  4 MPO446984    25   1   84 days 0.25 M-v 3Eh MPCLINUX   2803          2018 ET2           20180411
K18E02U 26.4   0.15 K194R 286.02308  212.33445  352.36063   20.36314  0.1647751  0.75551198   1.1939198  7 MPO446984    27   1    5 days 0.48 M-v 3Eh MPCLINUX   2803          2018 EU2           20180313
K18E02V 24.7   0.15 K194R 329.06892   61.33640   11.00524    4.87442  0.4186315  0.67939585   1.2815064  8 MPO439036     9   1    5 days 0.25 M-v 3Eh MPCW       2803          2018 EV2           20180312
K18E02Z 26.6   0.15 K194R 139.77112   27.40227  173.92740    4.97177  0.5106618  0.36143272   1.9518708  4 MPO450736    66   1   66 days 0.56 M-v 3Eh MPCLINUX   0803          2018 EZ2           20180517
K18E03R 25.6   0.15 K194R 132.19767   51.82998  147.87957    5.23549  0.4847851  0.34315878   2.0205641  8 MPO439037     8   1    6 days 0.32 M-v 3Eh MPCW       2804          2018 ER3           20180313
K18E03S 24.5   0.15 K194R 302.26501  337.98745  351.80267   14.30549  0.2452090  1.10791371   0.9249795  8 MPO439037    12   1    5 days 0.12 M-v 3Eh MPCW       2802          2018 ES3           20180313
K18E03T 26.6   0.15 K194R  64.67358  300.18478  162.86299    8.86935  0.1026413  0.89608549   1.0655400  6 MPO439037    31   1    9 days 0.65 M-v 3Eh MPCLINUX   2803          2018 ET3           20180318
K18E03U 23.9   0.15 K194R 263.71965  109.85158    0.71738   21.53924  0.3272243  0.56590454   1.4475734  7 MPO439037    37   1   11 days 0.36 M-v 3Eh MPCLINUX   2803          2018 EU3           20180320
K18E03V 27.1   0.15 K194R 166.01321  324.06742  164.93518   15.52909  0.5131685  0.37333520   1.9101615  5 MPO439038    24   1    4 days 0.35 M-v 3Eh MPCW       2803          2018 EV3           20180313
K18E03W 23.7   0.15 K194R 182.90085  351.45546  177.21299    9.27671  0.3451363  0.44478132   1.6996977  4 MPO457149    54   1   62 days 0.31 M-v 38h MPCLINUX   2804          2018 EW3           20180511
K18E03X 19.2   0.15 K194R  83.91795   29.73713    6.35738   22.38316  0.8505864  0.15946343   3.3679217  6 MPO439038    25   1   13 days 0.31 M-v 3Eh MPCLINUX   2803          2018 EX3           20180320
K18E03Y 23.6   0.15 K194R 187.80369  124.68025  122.77041    4.77098  0.3599933  0.55389905   1.4684155  4 MPO457149    42   1  187 days 0.28 M-v 3Eh MPCLINUX   0803          2018 EY3           20180910
K18E03Z 23.8   0.15 K194R 220.57480  211.07034  355.37603   10.75404  0.1705746  0.59656842   1.3975345  5 MPO446984    49   1   35 days 0.36 M-v 38h MPCLINUX   2804          2018 EZ3           20180414
K18E04A 23.3   0.15 K194R  85.83795    0.67549  164.18109   14.91795  0.6259744  0.20759787   2.8247984  5 MPO450736    65   1   58 days 0.44 M-v 3Eh MPCLINUX   2804          2018 EA4           20180509
K18E04B 25.4   0.15 K194R 104.55911  217.55557    3.04385    1.45591  0.6188845  0.27931734   2.3177724  4 MPO446984    85   1    4 days 0.49 M-v 3Eh MPCLINUX   2803          2018 EB4           20180316
K18E04D 19.4   0.15 K194R  59.41479  349.35998  274.87086   14.47887  0.6236821  0.22805538   2.6532357  3 MPO458736    46   1  202 days 0.38 M-v 3Eh MPCLINUX   8803          2018 ED4           20180928
K18E04E 20.5   0.15 K194R 115.94910  128.53520  167.07164   21.52647  0.1447951  0.53045521   1.5113681  4 MPO457149    76   1   93 days 0.36 M-v 38h MPCLINUX   0804          2018 EE4           20180611
K18E04F 26.3   0.15 K194R 352.22207  309.21859  167.47762    5.47034  0.2093524  0.76886851   1.1800525  6 MPO446984    71   1   31 days 0.42 M-v 3Eh MPCW       2803          2018 EF4           20180413
K18E04H 21.5   0.15 K194R 156.30872   74.71251    3.31036    6.21726  0.6156668  0.32878297   2.0790416  6 MPO439040    61   1   18 days 0.44 M-v 3Eh MPCLINUX   A803          2018 EH4           20180320
K18E04J 21.4   0.15 K194R 219.13894  188.22569   78.10106   10.38817  0.1834081  0.69938593   1.2569696  3 E2018-U80   506   1  229 days 0.35 M-v 3Eh MPCW       8804          2018 EJ4           20181028
K18E04K 24.5   0.15 K194R 190.46285  154.21132  351.52393    8.03357  0.3974221  0.44189445   1.7070924  6 MPO446984    45   1   22 days 0.32 M-v 3Eh MPCLINUX   2804          2018 EK4           20180405
K18E04L 25.4   0.15 K194R  76.66284  270.91750  168.54096    3.18027  0.1972577  0.89820805   1.0638607  6 MPO446984    79   1   30 days 0.40 M-v 3Eh MPCLINUX   2803          2018 EL4           20180413
K18E04M 25.3   0.15 K194R 240.36596  227.69562    6.44076    2.88618  0.2715147  0.67945617   1.2814306  6 MPO446984    42   1   23 days 0.31 M-v 3Eh MPCLINUX   2803          2018 EM4           20180329
K18E04O 23.4   0.15 K194R   4.28951  178.08259  167.78158   23.01175  0.3133232  1.30847901   0.8278625  8 MPO439041    46   1    9 days 0.39 M-v 3Eh MPCW       2802          2018 EO4           20180323
K18E04Q 19.6   0.15 K194R 156.80012  350.64230  140.30444   11.27316  0.5679587  0.34568316   2.0107152  3 MPO457149   166   1   91 days 0.32 M-v 3Eh MPCLINUX   0803          2018 EQ4           20180612
K18E04R 22.2   0.15 K194R 133.14378  220.57743    0.04204    2.32617  0.4648952  0.37559725   1.9024844  4 MPO457149    56   1   99 days 0.35 M-v 3Eh MPCLINUX   0804          2018 ER4           20180620
K18E09C 24.1   0.15 K194R 161.53325  186.62217  308.75297    2.41757  0.4756673  0.37100432   1.9181537  6 MPO446984    35   1   25 days 0.30 M-v 3Eh MPCLINUX   2804          2018 EC9           20180409
